ONEWEB-0495             
1 54115U 22138C   26154.49071352 -.00000006  00000+0 -47461-4 0  9994
2 54115  87.9159 307.7010 0001203  86.4008 273.7262 13.19727525175012
ONEWEB-0497             
1 54116U 22138D   26154.50334986  .00000026  00000+0  31794-4 0  9994
2 54116  87.9163 307.6896 0001730  95.1163 265.0167 13.19727040175002
ONEWEB-0499             
1 54117U 22138E   26154.48678030  .00000160  00000+0  36810-3 0  9995
2 54117  87.9149 307.7032 0001526  87.1934 272.9373 13.19725818175018
ONEWEB-0500             
1 54118U 22138F   26154.48912808  .00000522  00000+0  12724-2 0  9999
2 54118  87.9180 307.6978 0001829 108.9232 251.2100 13.19725612175022
ONEWEB-0501             
1 54119U 22138G   26154.97402960  .00002549  00000+0  63303-2 0  9997
2 54119  87.9167 307.5987 0002281  97.5698 262.5694 13.19748402175068
ONEWEB-0502             
1 54120U 22138H   26154.95981639 -.00000011  00000+0 -59185-4 0  9991
2 54120  87.9168 307.5900 0001678  87.9732 272.1593 13.19727136175085
ONEWEB-0503             
1 54121U 22138J   26152.44682126  .00000112  00000+0  24712-3 0  9990
2 54121  87.9166 308.0965 0002022  90.2839 269.8526 13.19727739174740
ONEWEB-0504             
1 54122U 22138K   26154.48124098  .00000046  00000+0  83115-4 0  9995
2 54122  87.9166 307.6964 0001685  89.8092 270.3233 13.19726137175029
ONEWEB-0505             
1 54123U 22138L   26154.32645868 -.00000021  00000+0 -84783-4 0  9999
2 54123  87.9166 307.7277 0001530  85.5692 274.5616 13.19725389174989
ONEWEB-0506             
1 54124U 22138M   26154.98352879  .00000031  00000+0  43940-4 0  9998
2 54124  87.9167 307.5941 0001609  89.5862 270.5455 13.19726354175067
ONEWEB-0507             
1 54125U 22138N   26154.47334509  .00000019  00000+0  15128-4 0  9996
2 54125  87.9158 307.7091 0001615  92.8688 267.2630 13.19726002175042
ONEWEB-0508             
1 54126U 22138P   26154.47017173  .00000097  00000+0  20997-3 0  9997
2 54126  87.9157 307.7093 0001373  94.2968 265.8322 13.19727524175022
ONEWEB-0509             
1 54127U 22138Q   26154.97562840 -.00000008  00000+0 -53416-4 0  9996
2 54127  87.9170 307.5967 0001706  93.6049 266.5279 13.19726718175066
ONEWEB-0510             
1 54128U 22138R   26154.26853363  .00000076  00000+0  15451-3 0  9991
2 54128  87.9191 277.2087 0002416 106.2200 253.9199 13.20773025177445
ONEWEB-0511             
1 54129U 22138S   26154.97247986 -.00000007  00000+0 -49714-4 0  9994
2 54129  87.9165 307.6007 0001896  86.0395 274.0954 13.19725179175095
ONEWEB-0512             
1 54130U 22138T   26154.96456307  .00000125  00000+0  28025-3 0  9994
2 54130  87.9161 307.6083 0001506  82.8785 277.2519 13.19724962175060
ONEWEB-0513             
1 54131U 22138U   26154.97562407 -.00000039  00000+0 -12782-3 0  9994
2 54131  87.9165 307.5514 0001699  63.9630 296.1677 13.20267491174970
ONEWEB-0514             
1 54132U 22138V   26154.44964676  .00000056  00000+0  10836-3 0  9996
2 54132  87.9168 307.7031 0001950  96.0459 264.0896 13.19726766175012
ONEWEB-0515             
1 54133U 22138W   26154.33080020 -.00000045  00000+0 -14171-3 0  9993
2 54133  87.9191 277.1917 0002362 121.7597 238.3767 13.20771972177473
ONEWEB-0516             
1 54134U 22138X   26154.50018493  .00000182  00000+0  42148-3 0  9993
2 54134  87.9143 307.7024 0001610 103.2682 256.8630 13.19727602175027
ONEWEB-0517             
1 54135U 22138Y   26154.47965331 -.00000127  00000+0 -34929-3 0  9991
2 54135  87.9165 307.6963 0002086  89.8865 270.2507 13.19726757175026
ONEWEB-0518             
1 54136U 22138Z   26153.81629712 -.00000010  00000+0 -57844-4 0  9992
2 54136  87.9155 307.8385 0001680 101.2384 258.8937 13.19726806174933
ONEWEB-0519             
1 54137U 22138AA  26154.97880295  .00000251  00000+0  59434-3 0  9997
2 54137  87.9170 307.5968 0001961  90.8144 269.3213 13.19724992175090
ONEWEB-0520             
1 54138U 22138AB  26154.48281992 -.00000042  00000+0 -13626-3 0  9996
2 54138  87.9168 307.6965 0001546  93.2630 266.8680 13.19726628175012
ONEWEB-0521             
1 54139U 22138AC  26154.97088796  .00000024  00000+0  26671-4 0  9991
2 54139  87.9169 307.5875 0002044  91.9202 268.2165 13.19726597175027
ONEWEB-0522             
1 54140U 22138AD  26154.49545248  .00000046  00000+0  82591-4 0  9997
2 54140  87.9170 307.6835 0001713  93.4338 266.6991 13.19726982175002
ONEWEB-0523             
1 54141U 22138AE  26154.31733345  .00000058  00000+0  11003-3 0  9998
2 54141  87.9188 277.2046 0002634 108.9725 251.1694 13.20769742177478
ONEWEB-0524             
1 54142U 22138AF  26154.30723573  .00000115  00000+0  25204-3 0  9992
2 54142  87.9206 277.2012 0002126 126.5102 233.6227 13.20770766177479
ONEWEB-0525             
1 54143U 22138AG  26154.96930262  .00000015  00000+0  40380-5 0  9993
2 54143  87.9168 307.5982 0001429  94.5041 265.6255 13.19724544175083
ONEWEB-0526             
1 54144U 22138AH  26154.47177366  .00000335  00000+0  80427-3 0  9997
2 54144  87.9152 307.6974 0001511  79.8519 280.2784 13.19729901174998
